{"type": "FeatureCollection", "features": [ {"type": "Feature", "properties": {"norad_id": 33492, "name": "GOSAT (IBUKI)", "group": "resource", "lat": -32.94113462488108, "lon": 102.55501835821447, "alt_km": 675.3899872027896, "timestamp": "2025-12-14T16:47:40.339659+00:00", "meta": {"OBJECT_NAME": "GOSAT (IBUKI)", "OBJECT_ID": "2009-002A", "EPOCH": "2025-12-13T21:18:35.439552", "MEAN_MOTION": 14.67557806, "ECCENTRICITY": 9.462e-05, "INCLINATION": 98.077, "RA_OF_ASC_NODE": 96.4752, "ARG_OF_PERICENTER": 93.6106, "MEAN_ANOMALY": 266.5207, "EPHEMERIS_TYPE": 0, "CLASSIFICATION_TYPE": "U", "NORAD_CAT_ID": 33492, "ELEMENT_SET_NO": 999, "REV_AT_EPOCH": 90428, "BSTAR": 0.00022832293, "MEAN_MOTION_DOT": 1.247e-05, "MEAN_MOTION_DDOT": 0}, "tle": {"line1": "1 33492U 09002A   25347.88791018  .00001247  00000+0  22832-3 0  9998", "line2": "2 33492  98.0770  96.4752 0000946  93.6106 266.5207 14.67557806904281"}}, "geometry": {"type": "Point", "coordinates": [102.55501835821447, -32.94113462488108]}}, {"type": "Feature", "properties": {"norad_id": 35681, "name": "DEIMOS-1", "group": "resource", "lat": 79.81578344181304, "lon": 18.20257702950266, "alt_km": 636.1330771787361, "timestamp": "2025-12-14T16:47:40.339670+00:00", "meta": {"OBJECT_NAME": "DEIMOS-1", "OBJECT_ID": "2009-041A", "EPOCH": "2025-12-14T00:04:35.673024", "MEAN_MOTION": 14.74955721, "ECCENTRICITY": 0.00027169, "INCLINATION": 97.7149, "RA_OF_ASC_NODE": 148.5475, "ARG_OF_PERICENTER": 77.5805, "MEAN_ANOMALY": 282.5708, "EPHEMERIS_TYPE": 0, "CLASSIFICATION_TYPE": "U", "NORAD_CAT_ID": 35681, "ELEMENT_SET_NO": 999, "REV_AT_EPOCH": 87958, "BSTAR": 0.00016648628, "MEAN_MOTION_DOT": 1.071e-05, "MEAN_MOTION_DDOT": 0}, "tle": {"line1": "1 35681U 09041A   25348.00319066  .00001071  00000+0  16649-3 0  9991", "line2": "2 35681  97.7149 148.5475 0002716  77.5805 282.5708 14.74955721879588"}}, "geometry": {"type": "Point", "coordinates": [18.20257702950266, 79.81578344181304]}}, {"type": "Feature", "properties": {"norad_id": 35682, "name": "DUBAISAT-1", "group": "resource", "lat": 28.804379930634155, "lon": 114.92720608709936, "alt_km": 644.0442110971699, "timestamp": "2025-12-14T16:47:40.339681+00:00", "meta": {"OBJECT_NAME": "DUBAISAT-1", "OBJECT_ID": "2009-041B", "EPOCH": "2025-12-13T22:44:57.041952", "MEAN_MOTION": 14.74609148, "ECCENTRICITY": 0.00094902, "INCLINATION": 97.9785, "RA_OF_ASC_NODE": 118.6096, "ARG_OF_PERICENTER": 310.3721, "MEAN_ANOMALY": 49.6659, "EPHEMERIS_TYPE": 0, "CLASSIFICATION_TYPE": "U", "NORAD_CAT_ID": 35682, "ELEMENT_SET_NO": 999, "REV_AT_EPOCH": 87779, "BSTAR": 0.00028028268, "MEAN_MOTION_DOT": 1.819e-05, "MEAN_MOTION_DDOT": 0}, "tle": {"line1": "1 35682U 09041B   25347.94788243  .00001819  00000+0  28028-3 0  9995", "line2": "2 35682  97.9785 118.6096 0009490 310.3721  49.6659 14.74609148877792"}}, "geometry": {"type": "Point", "coordinates": [114.92720608709936, 28.804379930634155]}}, {"type": "Feature", "properties": {"norad_id": 35931, "name": "OCEANSAT-2", "group": "resource", "lat": 37.7637121972655, "lon": -17.329398695672637, "alt_km": 880.5128864409398, "timestamp": "2025-12-14T16:47:40.339692+00:00", "meta": {"OBJECT_NAME": "OCEANSAT-2", "OBJECT_ID": "2009-051A", "EPOCH": "2025-12-13T23:27:21.577248", "MEAN_MOTION": 13.99624415, "ECCENTRICITY": 0.00161855, "INCLINATION": 98.2222, "RA_OF_ASC_NODE": 348.4525, "ARG_OF_PERICENTER": 41.814, "MEAN_ANOMALY": 318.426, "EPHEMERIS_TYPE": 0, "CLASSIFICATION_TYPE": "U", "NORAD_CAT_ID": 35931, "ELEMENT_SET_NO": 999, "REV_AT_EPOCH": 85342, "BSTAR": -6.3861296e-05, "MEAN_MOTION_DOT": -1.31e-06, "MEAN_MOTION_DDOT": 0}, "tle": {"line1": "1 35931U 09051A   25347.97733307 -.00000131  00000+0 -63861-4 0  9990", "line2": "2 35931  98.2222 348.4525 0016185  41.8140 318.4260 13.99624415853428"}}, "geometry": {"type": "Point", "coordinates": [-17.329398695672637, 37.7637121972655]}}, {"type": "Feature", "properties": {"norad_id": 35946, "name": "WORLDVIEW-2 (WV-2)", "group": "resource", "lat": 66.55419189189672, "lon": 39.63893263415562, "alt_km": 755.8424778728668, "timestamp": "2025-12-14T16:47:40.339702+00:00", "meta": {"OBJECT_NAME": "WORLDVIEW-2 (WV-2)", "OBJECT_ID": "2009-055A", "EPOCH": "2025-12-13T22:06:23.196384", "MEAN_MOTION": 14.37724452, "ECCENTRICITY": 0.00051497, "INCLINATION": 98.4788, "RA_OF_ASC_NODE": 58.989, "ARG_OF_PERICENTER": 67.7566, "MEAN_ANOMALY": 292.4167, "EPHEMERIS_TYPE": 0, "CLASSIFICATION_TYPE": "U", "NORAD_CAT_ID": 35946, "ELEMENT_SET_NO": 999, "REV_AT_EPOCH": 84902, "BSTAR": 7.1764937e-05, "MEAN_MOTION_DOT": 1.72e-06, "MEAN_MOTION_DDOT": 0}, "tle": {"line1": "1 35946U 09055A   25347.92110181  .00000172  00000+0  71765-4 0  9999", "line2": "2 35946  98.4788  58.9890 0005149  67.7566 292.4167 14.37724452849021"}}, "geometry": {"type": "Point", "coordinates": [39.63893263415562, 66.55419189189672]}}, {"type": "Feature", "properties": {"norad_id": 36036, "name": "SMOS", "group": "resource", "lat": 61.00871711403589, "lon": 9.257647712605985, "alt_km": 752.7608128990823, "timestamp": "2025-12-14T16:47:40.339713+00:00", "meta": {"OBJECT_NAME": "SMOS", "OBJECT_ID": "2009-059A", "EPOCH": "2025-12-13T23:34:12.601920", "MEAN_MOTION": 14.39742378, "ECCENTRICITY": 0.00011012, "INCLINATION": 98.438, "RA_OF_ASC_NODE": 173.0121, "ARG_OF_PERICENTER": 83.934, "MEAN_ANOMALY": 276.1974, "EPHEMERIS_TYPE": 0, "CLASSIFICATION_TYPE": "U", "NORAD_CAT_ID": 36036, "ELEMENT_SET_NO": 999, "REV_AT_EPOCH": 84680, "BSTAR": 0.00017653416, "MEAN_MOTION_DOT": 5.1e-06, "MEAN_MOTION_DDOT": 0}, "tle": {"line1": "1 36036U 09059A   25347.98209030  .00000510  00000+0  17653-3 0  9993", "line2": "2 36036  98.4380 173.0121 0001101  83.9340 276.1974 14.39742378846807"}}, "geometry": {"type": "Point", "coordinates": [9.257647712605985, 61.00871711403589]}}, {"type": "Feature", "properties": {"norad_id": 36110, "name": "YAOGAN-7", "group": "resource", "lat": -29.91096053673174, "lon": 45.79131280155166, "alt_km": 635.4039994095947, "timestamp": "2025-12-14T16:47:40.339723+00:00", "meta": {"OBJECT_NAME": "YAOGAN-7", "OBJECT_ID": "2009-069A", "EPOCH": "2025-12-13T15:28:04.382688", "MEAN_MOTION": 14.7773432, "ECCENTRICITY": 0.00233703, "INCLINATION": 98.0299, "RA_OF_ASC_NODE": 229.3983, "ARG_OF_PERICENTER": 278.217, "MEAN_ANOMALY": 81.639, "EPHEMERIS_TYPE": 0, "CLASSIFICATION_TYPE": "U", "NORAD_CAT_ID": 36110, "ELEMENT_SET_NO": 999, "REV_AT_EPOCH": 86222, "BSTAR": 0.00014262467, "MEAN_MOTION_DOT": 9.73e-06, "MEAN_MOTION_DDOT": 0}, "tle": {"line1": "1 36110U 09069A   25347.64449517  .00000973  00000+0  14262-3 0  9992", "line2": "2 36110  98.0299 229.3983 0023370 278.2170  81.6390 14.77734320862223"}}, "geometry": {"type": "Point", "coordinates": [45.79131280155166, -29.91096053673174]}}, {"type": "Feature", "properties": {"norad_id": 36605, "name": "TANDEM-X", "group": "resource", "lat": 27.42084230798014, "lon": -9.83746847305297, "alt_km": 506.54038480679174, "timestamp": "2025-12-14T16:47:40.339733+00:00", "meta": {"OBJECT_NAME": "TANDEM-X", "OBJECT_ID": "2010-030A", "EPOCH": "2025-12-13T13:47:56.200128", "MEAN_MOTION": 15.19152153, "ECCENTRICITY": 0.00019496, "INCLINATION": 97.4458, "RA_OF_ASC_NODE": 352.9445, "ARG_OF_PERICENTER": 84.6239, "MEAN_ANOMALY": 275.5218, "EPHEMERIS_TYPE": 0, "CLASSIFICATION_TYPE": "U", "NORAD_CAT_ID": 36605, "ELEMENT_SET_NO": 999, "REV_AT_EPOCH": 85846, "BSTAR": 0.0001209332, "MEAN_MOTION_DOT": 2.473e-05, "MEAN_MOTION_DDOT": 0}, "tle": {"line1": "1 36605U 10030A   25347.57495602  .00002473  00000+0  12093-3 0  9996", "line2": "2 36605  97.4458 352.9445 0001949  84.6239 275.5218 15.19152153858460"}}, "geometry": {"type": "Point", "coordinates": [-9.83746847305297, 27.42084230798014]}}, {"type": "Feature", "properties": {"norad_id": 36795, "name": "CARTOSAT-2B", "group": "resource", "lat": 34.65286996893559, "lon": -136.9070645763976, "alt_km": 628.6239394380082, "timestamp": "2025-12-14T16:47:40.339743+00:00", "meta": {"OBJECT_NAME": "CARTOSAT-2B", "OBJECT_ID": "2010-035A", "EPOCH": "2025-12-13T23:54:09.785376", "MEAN_MOTION": 14.78727344, "ECCENTRICITY": 0.00130668, "INCLINATION": 97.7855, "RA_OF_ASC_NODE": 36.9854, "ARG_OF_PERICENTER": 72.7388, "MEAN_ANOMALY": 287.5252, "EPHEMERIS_TYPE": 0, "CLASSIFICATION_TYPE": "U", "NORAD_CAT_ID": 36795, "ELEMENT_SET_NO": 999, "REV_AT_EPOCH": 83248, "BSTAR": 0.00016423547, "MEAN_MOTION_DOT": 1.157e-05, "MEAN_MOTION_DDOT": 0}, "tle": {"line1": "1 36795U 10035A   25347.99594659  .00001157  00000+0  16424-3 0  9999", "line2": "2 36795  97.7855  36.9854 0013066  72.7388 287.5252 14.78727344832482"}}, "geometry": {"type": "Point", "coordinates": [-136.9070645763976, 34.65286996893559]}}, {"type": "Feature", "properties": {"norad_id": 36834, "name": "YAOGAN-10", "group": "resource", "lat": -81.31482926433077, "lon": 122.89748936801685, "alt_km": 623.1085563841098, "timestamp": "2025-12-14T16:47:40.339753+00:00", "meta": {"OBJECT_NAME": "YAOGAN-10", "OBJECT_ID": "2010-038A", "EPOCH": "2025-12-14T01:17:15.669312", "MEAN_MOTION": 14.84616555, "ECCENTRICITY": 0.00014049, "INCLINATION": 97.915, "RA_OF_ASC_NODE": 7.8646, "ARG_OF_PERICENTER": 82.5618, "MEAN_ANOMALY": 332.7029, "EPHEMERIS_TYPE": 0, "CLASSIFICATION_TYPE": "U", "NORAD_CAT_ID": 36834, "ELEMENT_SET_NO": 999, "REV_AT_EPOCH": 82973, "BSTAR": 0.00035900404, "MEAN_MOTION_DOT": 2.98e-05, "MEAN_MOTION_DDOT": 0}, "tle": {"line1": "1 36834U 10038A   25348.05365358  .00002980  00000+0  35900-3 0  9991", "line2": "2 36834  97.9150   7.8646 0001404  82.5618 332.7029 14.84616555829737"}}, "geometry": {"type": "Point", "coordinates": [122.89748936801685, -81.31482926433077]}}]}